STARLINK-34508          
1 64601U 25137H   25347.30449373  .00055248  00000+0  13794-2 0  9998
2 64601  53.1613  18.2866 0001490  43.8895 316.2228 15.39658841 27485
STARLINK-34435          
1 64602U 25137J   25347.09118598  .00057535  00000+0  14381-2 0  9991
2 64602  53.1600  19.0879 0001509  65.1100 295.0062 15.39606866 27459
STARLINK-34475          
1 64603U 25137K   25347.28127053  .00087048  00000+0  21578-2 0  9997
2 64603  53.1593  18.1391 0001154  83.0005 277.1131 15.39671248 27486
STARLINK-34488          
1 64604U 25137L   25347.31377426  .00049210  00000+0  12315-2 0  9991
2 64604  53.1598  18.3446 0001233  91.5083 268.6063 15.39639177 27487
STARLINK-34516          
1 64605U 25137M   25347.10045569  .00061430  00000+0  15310-2 0  9995
2 64605  53.1595  19.1454 0001148  80.4772 279.6363 15.39666887 27551
STARLINK-34073          
1 64606U 25137N   25347.27197952  .00089187  00000+0  22113-2 0  9996
2 64606  53.1591  18.0808 0001248  30.3773 329.7304 15.39652470 27369
STARLINK-34532          
1 64607U 25137P   25347.29002445  .00034284  00000+0  11630-2 0  9991
2 64607  53.1618  26.7093 0000516 152.4210 207.6818 15.30237226 27364
STARLINK-34519          
1 64608U 25137Q   25347.31875707  .00110892  00000+0  27384-2 0  9997
2 64608  53.1598  18.3762 0001341  57.5235 302.5899 15.39662029 27480
STARLINK-34513          
1 64609U 25137R   25347.31411159  .00050008  00000+0  12514-2 0  9996
2 64609  53.1594  18.3453 0001412  87.9315 272.1852 15.39634760 27571
STARLINK-34569          
1 64610U 25137S   25347.30913134  .00110848  00000+0  27393-2 0  9997
2 64610  53.1597  18.3141 0000963  62.2510 297.8593 15.39640184 27486
STARLINK-34494          
1 64611U 25137T   25347.30482358 -.00153295  00000+0 -38711-2 0  9998
2 64611  53.1606  18.2874 0003002 175.0718 185.0317 15.39838002 27480
STARLINK-34521          
1 64612U 25137U   25347.29518949  .00207797  00000+0  46168-2 0  9993
2 64612  53.1606  18.2246 0011716 233.4786 126.5142 15.42358730 27484
STARLINK-34500          
1 64613U 25137V   25347.28589951  .00893472  00000+0  19165-1 0  9991
2 64613  53.1604  18.1664 0010712 226.7786 133.2326 15.41677264 27581
STARLINK-34440          
1 64614U 25137W   25347.28160254  .00084658  00000+0  21013-2 0  9997
2 64614  53.1599  18.1380 0001680 100.4232 259.6962 15.39644285 27480
STARLINK-34469          
1 64615U 25137X   25347.30018202  .00107302  00000+0  26523-2 0  9999
2 64615  53.1602  18.2566 0001077  54.9317 305.1789 15.39650780 27481
STARLINK-34413          
1 64616U 25137Y   25347.29054737  .01109844  00000+0  23604-1 0  9991
2 64616  53.1607  18.1974 0011847 222.4201 137.5890 15.41783528 27580
