[{"OBJECT_NAME":"STARLINK-34508","OBJECT_ID":"2025-137H","EPOCH":"2025-12-13T07:18:28.258272","MEAN_MOTION":15.39658841,"ECCENTRICITY":0.00014904,"INCLINATION":53.1613,"RA_OF_ASC_NODE":18.2866,"ARG_OF_PERICENTER":43.8895,"MEAN_ANOMALY":316.2228,"EPHEMERIS_TYPE":0,"CLASSIFICATION_TYPE":"U","NORAD_CAT_ID":64601,"ELEMENT_SET_NO":999,"REV_AT_EPOCH":2748,"BSTAR":0.0013794144,"MEAN_MOTION_DOT":0.00055248,"MEAN_MOTION_DDOT":0},{"OBJECT_NAME":"STARLINK-34435","OBJECT_ID":"2025-137J","EPOCH":"2025-12-13T02:11:18.468672","MEAN_MOTION":15.39606866,"ECCENTRICITY":0.00015096,"INCLINATION":53.16,"RA_OF_ASC_NODE":19.0879,"ARG_OF_PERICENTER":65.11,"MEAN_ANOMALY":295.0062,"EPHEMERIS_TYPE":0,"CLASSIFICATION_TYPE":"U","NORAD_CAT_ID":64602,"ELEMENT_SET_NO":999,"REV_AT_EPOCH":2745,"BSTAR":0.0014381381,"MEAN_MOTION_DOT":0.00057535,"MEAN_MOTION_DDOT":0},{"OBJECT_NAME":"STARLINK-34475","OBJECT_ID":"2025-137K","EPOCH":"2025-12-13T06:45:01.773792","MEAN_MOTION":15.39671248,"ECCENTRICITY":0.00011542,"INCLINATION":53.1593,"RA_OF_ASC_NODE":18.1391,"ARG_OF_PERICENTER":83.0005,"MEAN_ANOMALY":277.1131,"EPHEMERIS_TYPE":0,"CLASSIFICATION_TYPE":"U","NORAD_CAT_ID":64603,"ELEMENT_SET_NO":999,"REV_AT_EPOCH":2748,"BSTAR":0.0021577865,"MEAN_MOTION_DOT":0.00087048,"MEAN_MOTION_DDOT":0},{"OBJECT_NAME":"STARLINK-34488","OBJECT_ID":"2025-137L","EPOCH":"2025-12-13T07:31:50.096064","MEAN_MOTION":15.39639177,"ECCENTRICITY":0.00012338,"INCLINATION":53.1598,"RA_OF_ASC_NODE":18.3446,"ARG_OF_PERICENTER":91.5083,"MEAN_ANOMALY":268.6063,"EPHEMERIS_TYPE":0,"CLASSIFICATION_TYPE":"U","NORAD_CAT_ID":64604,"ELEMENT_SET_NO":999,"REV_AT_EPOCH":2748,"BSTAR":0.0012315311,"MEAN_MOTION_DOT":0.0004921,"MEAN_MOTION_DDOT":0},{"OBJECT_NAME":"STARLINK-34516","OBJECT_ID":"2025-137M","EPOCH":"2025-12-13T02:24:39.371616","MEAN_MOTION":15.39666887,"ECCENTRICITY":0.00011488,"INCLINATION":53.1595,"RA_OF_ASC_NODE":19.1454,"ARG_OF_PERICENTER":80.4772,"MEAN_ANOMALY":279.6363,"EPHEMERIS_TYPE":0,"CLASSIFICATION_TYPE":"U","NORAD_CAT_ID":64605,"ELEMENT_SET_NO":999,"REV_AT_EPOCH":2755,"BSTAR":0.0015310366,"MEAN_MOTION_DOT":0.0006143,"MEAN_MOTION_DDOT":0},{"OBJECT_NAME":"STARLINK-34073","OBJECT_ID":"2025-137N","EPOCH":"2025-12-13T06:31:39.030528","MEAN_MOTION":15.3965247,"ECCENTRICITY":0.00012486,"INCLINATION":53.1591,"RA_OF_ASC_NODE":18.0808,"ARG_OF_PERICENTER":30.3773,"MEAN_ANOMALY":329.7304,"EPHEMERIS_TYPE":0,"CLASSIFICATION_TYPE":"U","NORAD_CAT_ID":64606,"ELEMENT_SET_NO":999,"REV_AT_EPOCH":2736,"BSTAR":0.0022113067,"MEAN_MOTION_DOT":0.00089187,"MEAN_MOTION_DDOT":0},{"OBJECT_NAME":"STARLINK-34532","OBJECT_ID":"2025-137P","EPOCH":"2025-12-13T06:57:38.112480","MEAN_MOTION":15.30237226,"ECCENTRICITY":5.163e-5,"INCLINATION":53.1618,"RA_OF_ASC_NODE":26.7093,"ARG_OF_PERICENTER":152.421,"MEAN_ANOMALY":207.6818,"EPHEMERIS_TYPE":0,"CLASSIFICATION_TYPE":"U","NORAD_CAT_ID":64607,"ELEMENT_SET_NO":999,"REV_AT_EPOCH":2736,"BSTAR":0.0011629757,"MEAN_MOTION_DOT":0.00034284,"MEAN_MOTION_DDOT":0},{"OBJECT_NAME":"STARLINK-34519","OBJECT_ID":"2025-137Q","EPOCH":"2025-12-13T07:39:00.610848","MEAN_MOTION":15.39662029,"ECCENTRICITY":0.00013415,"INCLINATION":53.1598,"RA_OF_ASC_NODE":18.3762,"ARG_OF_PERICENTER":57.5235,"MEAN_ANOMALY":302.5899,"EPHEMERIS_TYPE":0,"CLASSIFICATION_TYPE":"U","NORAD_CAT_ID":64608,"ELEMENT_SET_NO":999,"REV_AT_EPOCH":2748,"BSTAR":0.0027383714,"MEAN_MOTION_DOT":0.00110892,"MEAN_MOTION_DDOT":0},{"OBJECT_NAME":"STARLINK-34513","OBJECT_ID":"2025-137R","EPOCH":"2025-12-13T07:32:19.241376","MEAN_MOTION":15.3963476,"ECCENTRICITY":0.00014129,"INCLINATION":53.1594,"RA_OF_ASC_NODE":18.3453,"ARG_OF_PERICENTER":87.9315,"MEAN_ANOMALY":272.1852,"EPHEMERIS_TYPE":0,"CLASSIFICATION_TYPE":"U","NORAD_CAT_ID":64609,"ELEMENT_SET_NO":999,"REV_AT_EPOCH":2757,"BSTAR":0.0012513729,"MEAN_MOTION_DOT":0.00050008,"MEAN_MOTION_DDOT":0},{"OBJECT_NAME":"STARLINK-34569","OBJECT_ID":"2025-137S","EPOCH":"2025-12-13T07:25:08.947776","MEAN_MOTION":15.39640184,"ECCENTRICITY":9.633e-5,"INCLINATION":53.1597,"RA_OF_ASC_NODE":18.3141,"ARG_OF_PERICENTER":62.251,"MEAN_ANOMALY":297.8593,"EPHEMERIS_TYPE":0,"CLASSIFICATION_TYPE":"U","NORAD_CAT_ID":64610,"ELEMENT_SET_NO":999,"REV_AT_EPOCH":2748,"BSTAR":0.0027392516,"MEAN_MOTION_DOT":0.00110848,"MEAN_MOTION_DDOT":0},{"OBJECT_NAME":"STARLINK-34494","OBJECT_ID":"2025-137T","EPOCH":"2025-12-13T07:18:56.757312","MEAN_MOTION":15.39838002,"ECCENTRICITY":0.00030023,"INCLINATION":53.1606,"RA_OF_ASC_NODE":18.2874,"ARG_OF_PERICENTER":175.0718,"MEAN_ANOMALY":185.0317,"EPHEMERIS_TYPE":0,"CLASSIFICATION_TYPE":"U","NORAD_CAT_ID":64611,"ELEMENT_SET_NO":999,"REV_AT_EPOCH":2748,"BSTAR":-0.0038710587,"MEAN_MOTION_DOT":-0.00153295,"MEAN_MOTION_DDOT":0},{"OBJECT_NAME":"STARLINK-34521","OBJECT_ID":"2025-137U","EPOCH":"2025-12-13T07:05:04.371936","MEAN_MOTION":15.4235873,"ECCENTRICITY":0.00117167,"INCLINATION":53.1606,"RA_OF_ASC_NODE":18.2246,"ARG_OF_PERICENTER":233.4786,"MEAN_ANOMALY":126.5142,"EPHEMERIS_TYPE":0,"CLASSIFICATION_TYPE":"U","NORAD_CAT_ID":64612,"ELEMENT_SET_NO":999,"REV_AT_EPOCH":2748,"BSTAR":0.0046168304,"MEAN_MOTION_DOT":0.00207797,"MEAN_MOTION_DDOT":0},{"OBJECT_NAME":"STARLINK-34500","OBJECT_ID":"2025-137V","EPOCH":"2025-12-13T06:51:41.717664","MEAN_MOTION":15.41677264,"ECCENTRICITY":0.00107124,"INCLINATION":53.1604,"RA_OF_ASC_NODE":18.1664,"ARG_OF_PERICENTER":226.7786,"MEAN_ANOMALY":133.2326,"EPHEMERIS_TYPE":0,"CLASSIFICATION_TYPE":"U","NORAD_CAT_ID":64613,"ELEMENT_SET_NO":999,"REV_AT_EPOCH":2758,"BSTAR":0.019164972,"MEAN_MOTION_DOT":0.00893472,"MEAN_MOTION_DDOT":0},{"OBJECT_NAME":"STARLINK-34440","OBJECT_ID":"2025-137W","EPOCH":"2025-12-13T06:45:30.459456","MEAN_MOTION":15.39644285,"ECCENTRICITY":0.00016802,"INCLINATION":53.1599,"RA_OF_ASC_NODE":18.138,"ARG_OF_PERICENTER":100.4232,"MEAN_ANOMALY":259.6962,"EPHEMERIS_TYPE":0,"CLASSIFICATION_TYPE":"U","NORAD_CAT_ID":64614,"ELEMENT_SET_NO":999,"REV_AT_EPOCH":2748,"BSTAR":0.002101314,"MEAN_MOTION_DOT":0.00084658,"MEAN_MOTION_DDOT":0},{"OBJECT_NAME":"STARLINK-34469","OBJECT_ID":"2025-137X","EPOCH":"2025-12-13T07:12:15.726528","MEAN_MOTION":15.3965078,"ECCENTRICITY":0.00010775,"INCLINATION":53.1602,"RA_OF_ASC_NODE":18.2566,"ARG_OF_PERICENTER":54.9317,"MEAN_ANOMALY":305.1789,"EPHEMERIS_TYPE":0,"CLASSIFICATION_TYPE":"U","NORAD_CAT_ID":64615,"ELEMENT_SET_NO":999,"REV_AT_EPOCH":2748,"BSTAR":0.0026522648,"MEAN_MOTION_DOT":0.00107302,"MEAN_MOTION_DDOT":0},{"OBJECT_NAME":"STARLINK-34413","OBJECT_ID":"2025-137Y","EPOCH":"2025-12-13T06:58:23.292768","MEAN_MOTION":15.41783528,"ECCENTRICITY":0.00118478,"INCLINATION":53.1607,"RA_OF_ASC_NODE":18.1974,"ARG_OF_PERICENTER":222.4201,"MEAN_ANOMALY":137.589,"EPHEMERIS_TYPE":0,"CLASSIFICATION_TYPE":"U","NORAD_CAT_ID":64616,"ELEMENT_SET_NO":999,"REV_AT_EPOCH":2758,"BSTAR":0.023604129,"MEAN_MOTION_DOT":0.01109844,"MEAN_MOTION_DDOT":0}]
